
# Worst residual: 2.04 km
# MJD 59189.000000 (2020 Dec  6  0:00)
2020 SO = Surveyor 2 Centaur
1 02426U 66084B   20341.49919926  .00000000  00000-0  00000-0 2 11071
2 02426 034.3089 028.7018 9289518 176.5013 027.5830 00.01493299    06

# Worst residual: 3.42 km
# MJD 59190.000000 (2020 Dec  7  0:00)
2020 SO = Surveyor 2 Centaur
1 02426U 66084B   20342.49919926  .00000000  00000-0  00000-0 2 11072
2 02426 034.3901 028.6252 9289051 176.5942 032.9112 00.01491186    07

# Worst residual: 5.90 km
# MJD 59191.000000 (2020 Dec  8  0:00)
2020 SO = Surveyor 2 Centaur
1 02426U 66084B   20343.49919926  .00000000  00000-0  00000-0 2 11073
2 02426 034.4761 028.5520 9285319 176.7629 038.1643 00.01486377    09

# Worst residual: 10.06 km
# MJD 59192.000000 (2020 Dec  9  0:00)
2020 SO = Surveyor 2 Centaur
1 02426U 66084B   20344.49919926  .00000000  00000-0  00000-0 2 11074
2 02426 034.5561 028.4900 9276979 177.0026 043.3457 00.01479709    08

# Worst residual: 14.19 km
# MJD 59193.000000 (2020 Dec 10  0:00)
2020 SO = Surveyor 2 Centaur
1 02426U 66084B   20345.49919926  .00000000  00000-0  00000-0 2 11075
2 02426 034.6174 028.4463 9262795 177.3047 048.4740 00.01472018    07

# Worst residual: 17.98 km
# MJD 59194.000000 (2020 Dec 11  0:00)
2020 SO = Surveyor 2 Centaur
1 02426U 66084B   20346.49919926  .00000000  00000-0  00000-0 2 11076
2 02426 034.6469 028.4267 9241726 177.6562 053.5830 00.01464129    03

# Worst residual: 21.09 km
# MJD 59195.000000 (2020 Dec 12  0:00)
2020 SO = Surveyor 2 Centaur
1 02426U 66084B   20347.49919926  .00000000  00000-0  00000-0 2 11077
2 02426 034.6340 028.4344 9213060 178.0400 058.7188 00.01456812    06

# Worst residual: 23.22 km
# MJD 59196.000000 (2020 Dec 13  0:00)
2020 SO = Surveyor 2 Centaur
1 02426U 66084B   20348.49919926  .00000000  00000-0  00000-0 2 11078
2 02426 034.5722 028.4695 9176553 178.4361 063.9350 00.01450712    05

# Worst residual: 24.16 km
# MJD 59197.000000 (2020 Dec 14  0:00)
2020 SO = Surveyor 2 Centaur
1 02426U 66084B   20349.49919926  .00000000  00000-0  00000-0 2 11079
2 02426 034.4607 028.5290 9132516 178.8226 069.2859 00.01446292    04

# Worst residual: 24.01 km
# MJD 59198.000000 (2020 Dec 15  0:00)
2020 SO = Surveyor 2 Centaur
1 02426U 66084B   20350.49919926  .00000000  00000-0  00000-0 2 11071
2 02426 034.3047 028.6072 9081845 179.1788 074.8166 00.01443763    08

# Worst residual: 23.11 km
# MJD 59199.000000 (2020 Dec 16  0:00)
2020 SO = Surveyor 2 Centaur
1 02426U 66084B   20351.49919926  .00000000  00000-0  00000-0 2 11072
2 02426 034.1135 028.6973 9025884 179.4871 080.5585 00.01443102    07

# Worst residual: 26.98 km
# MJD 59200.000000 (2020 Dec 17  0:00)
2020 SO = Surveyor 2 Centaur
1 02426U 66084B   20352.49919926  .00000000  00000-0  00000-0 2 11073
2 02426 033.8982 028.7928 8966254 179.7347 086.5269 00.01444092    03

# Worst residual: 30.62 km
# MJD 59201.000000 (2020 Dec 18  0:00)
2020 SO = Surveyor 2 Centaur
1 02426U 66084B   20353.49919926  .00000000  00000-0  00000-0 2 11074
2 02426 033.6700 028.8879 8904614 179.9143 092.7222 00.01446401    07

# Worst residual: 33.13 km
# MJD 59202.000000 (2020 Dec 19  0:00)
2020 SO = Surveyor 2 Centaur
1 02426U 66084B   20354.49919926  .00000000  00000-0  00000-0 2 11075
2 02426 033.4381 028.9785 8842496 180.0234 099.1338 00.01449646    03

# Worst residual: 35.26 km
# MJD 59203.000000 (2020 Dec 20  0:00)
2020 SO = Surveyor 2 Centaur
1 02426U 66084B   20355.49919926  .00000000  00000-0  00000-0 2 11076
2 02426 033.2097 029.0618 8781214 180.0635 105.7430 00.01453442    03

# Worst residual: 36.52 km
# MJD 59204.000000 (2020 Dec 21  0:00)
2020 SO = Surveyor 2 Centaur
1 02426U 66084B   20356.49919926  .00000000  00000-0  00000-0 2 11077
2 02426 032.9900 029.1363 8721816 180.0389 112.5248 00.01457425    06

# Worst residual: 37.15 km
# MJD 59205.000000 (2020 Dec 22  0:00)
2020 SO = Surveyor 2 Centaur
1 02426U 66084B   20357.49919926  .00000000  00000-0  00000-0 2 11078
2 02426 032.7817 029.2015 8665152 179.9563 119.4487 00.01461275    06

# Worst residual: 37.09 km
# MJD 59206.000000 (2020 Dec 23  0:00)
2020 SO = Surveyor 2 Centaur
1 02426U 66084B   20358.49919926  .00000000  00000-0  00000-0 2 11079
2 02426 032.5868 029.2575 8611956 179.8233 126.4789 00.01464722    00

# Worst residual: 36.42 km
# MJD 59207.000000 (2020 Dec 24  0:00)
2020 SO = Surveyor 2 Centaur
1 02426U 66084B   20359.49919926  .00000000  00000-0  00000-0 2 11070
2 02426 032.4065 029.3046 8562971 179.6484 133.5761 00.01467585    09

# Worst residual: 35.21 km
# MJD 59208.000000 (2020 Dec 25  0:00)
2020 SO = Surveyor 2 Centaur
1 02426U 66084B   20360.49919926  .00000000  00000-0  00000-0 2 11072
2 02426 032.2423 029.3432 8518941 179.4406 140.7007 00.01469770    05

# Worst residual: 33.47 km
# MJD 59209.000000 (2020 Dec 26  0:00)
2020 SO = Surveyor 2 Centaur
1 02426U 66084B   20361.49919926  .00000000  00000-0  00000-0 2 11073
2 02426 032.0962 029.3736 8480508 179.2093 147.8151 00.01471262    02

# Worst residual: 31.17 km
# MJD 59210.000000 (2020 Dec 27  0:00)
2020 SO = Surveyor 2 Centaur
1 02426U 66084B   20362.49919926  .00000000  00000-0  00000-0 2 11074
2 02426 031.9703 029.3964 8448066 178.9641 154.8835 00.01472091    02

# Worst residual: 28.57 km
# MJD 59211.000000 (2020 Dec 28  0:00)
2020 SO = Surveyor 2 Centaur
1 02426U 66084B   20363.49919926  .00000000  00000-0  00000-0 2 11075
2 02426 031.8665 029.4124 8421632 178.7154 161.8718 00.01472303    08

# Worst residual: 25.69 km
# MJD 59212.000000 (2020 Dec 29  0:00)
2020 SO = Surveyor 2 Centaur
1 02426U 66084B   20364.49919926  .00000000  00000-0  00000-0 2 11076
2 02426 031.7857 029.4226 8400769 178.4728 168.7475 00.01471948    05

# Worst residual: 22.64 km
# MJD 59213.000000 (2020 Dec 30  0:00)
2020 SO = Surveyor 2 Centaur
1 02426U 66084B   20365.49919926  .00000000  00000-0  00000-0 2 11077
2 02426 031.7281 029.4283 8384561 178.2450 175.4805 00.01471070    08

# Worst residual: 19.65 km
# MJD 59214.000000 (2020 Dec 31  0:00)
2020 SO = Surveyor 2 Centaur
1 02426U 66084B   20366.49919926  .00000000  00000-0  00000-0 2 11078
2 02426 031.6923 029.4308 8371648 178.0384 182.0461 00.01469698    09
